zip,lat,lng,city,state_id
06390,41.27027,-71.98886,Fishers Island,NY
10001,40.75064,-73.99728,New York,NY
10002,40.71597,-73.98692,New York,NY
10003,40.73184,-73.98915,New York,NY
10004,40.69431,-74.01835,New York,NY
10005,40.70614,-74.00862,New York,NY
10006,40.70949,-74.01306,New York,NY
10007,40.71387,-74.00792,New York,NY
10009,40.72639,-73.97865,New York,NY
10010,40.73899,-73.98243,New York,NY
10011,40.74173,-74.00037,New York,NY
10012,40.7256,-73.99794,New York,NY
10013,40.72001,-74.00472,New York,NY
10014,40.73407,-74.00601,New York,NY
10016,40.74515,-73.97807,New York,NY
10017,40.75235,-73.9726,New York,NY
10018,40.75536,-73.99265,New York,NY
10019,40.76586,-73.9853,New York,NY
10020,40.75917,-73.98071,New York,NY
10021,40.76963,-73.95899,New York,NY
10022,40.75856,-73.96787,New York,NY
10023,40.77464,-73.97836,New York,NY
10024,40.78534,-73.97138,New York,NY
10025,40.79825,-73.96831,New York,NY
10026,40.80302,-73.95348,New York,NY
10027,40.81187,-73.95459,New York,NY
10028,40.77643,-73.95339,New York,NY
10029,40.79265,-73.94788,New York,NY
10030,40.81826,-73.94283,New York,NY
10031,40.82485,-73.95023,New York,NY
10032,40.839,-73.94282,New York,NY
10033,40.84744,-73.93549,New York,NY
10034,40.86749,-73.92358,New York,NY
10035,40.79538,-73.92965,New York,NY
10036,40.75976,-73.99064,New York,NY
10037,40.81302,-73.93776,New York,NY
10038,40.70914,-74.00298,New York,NY
10039,40.82631,-73.93752,New York,NY
10040,40.85807,-73.9296,New York,NY
10044,40.76209,-73.94981,New York,NY
10065,40.76472,-73.96332,New York,NY
10069,40.77752,-73.98875,New York,NY
10075,40.77342,-73.95642,New York,NY
10103,40.76078,-73.97767,New York,NY
10110,40.7545,-73.98226,New York,NY
10111,40.75953,-73.97858,New York,NY
10112,40.75891,-73.97904,New York,NY
10115,40.81085,-73.96374,New York,NY
10119,40.75064,-73.99273,New York,NY
10128,40.78151,-73.95018,New York,NY
10152,40.75872,-73.9718,New York,NY
10153,40.76362,-73.97244,New York,NY
10154,40.75778,-73.97249,New York,NY
10162,40.76936,-73.94986,New York,NY
10165,40.75213,-73.97872,New York,NY
10167,40.75465,-73.97477,New York,NY
10168,40.75145,-73.9771,New York,NY
10169,40.75467,-73.97643,New York,NY
10170,40.75263,-73.97588,New York,NY
10171,40.7559,-73.97386,New York,NY
10172,40.75527,-73.97431,New York,NY
10173,40.75379,-73.97961,New York,NY
10174,40.75144,-73.975,New York,NY
10177,40.75498,-73.97589,New York,NY
10199,40.75138,-73.99715,New York,NY
10271,40.70844,-74.01033,New York,NY
10278,40.71513,-74.00373,New York,NY
10279,40.71263,-74.00867,New York,NY
10280,40.70985,-74.01651,New York,NY
10282,40.71655,-74.01495,New York,NY
10301,40.62803,-74.09564,Staten Island,NY
10302,40.63055,-74.13776,Staten Island,NY
10303,40.63223,-74.16903,Staten Island,NY
10304,40.60671,-74.0931,Staten Island,NY
10305,40.59592,-74.07539,Staten Island,NY
10306,40.57149,-74.1243,Staten Island,NY
10307,40.50817,-74.24254,Staten Island,NY
10308,40.55213,-74.15029,Staten Island,NY
10309,40.53001,-74.21912,Staten Island,NY
10310,40.63243,-74.11653,Staten Island,NY
10311,40.60523,-74.17956,Staten Island,NY
10312,40.54489,-74.18084,Staten Island,NY
10314,40.60086,-74.16306,Staten Island,NY
10451,40.82097,-73.92383,Bronx,NY
10452,40.8378,-73.92333,Bronx,NY
10453,40.85248,-73.9133,Bronx,NY
10454,40.8056,-73.91664,Bronx,NY
10455,40.8148,-73.90862,Bronx,NY
10456,40.83064,-73.90812,Bronx,NY
10457,40.84571,-73.89794,Bronx,NY
10458,40.86249,-73.88643,Bronx,NY
10459,40.82572,-73.89295,Bronx,NY
10460,40.84273,-73.87891,Bronx,NY
10461,40.84671,-73.84079,Bronx,NY
10462,40.84297,-73.85873,Bronx,NY
10463,40.88841,-73.89905,Bronx,NY
10464,40.86821,-73.80044,Bronx,NY
10465,40.8286,-73.82179,Bronx,NY
10466,40.89104,-73.8461,Bronx,NY
10467,40.87522,-73.872,Bronx,NY
10468,40.8681,-73.89985,Bronx,NY
10469,40.86851,-73.84666,Bronx,NY
10470,40.89598,-73.86805,Bronx,NY
10471,40.90002,-73.9067,Bronx,NY
10472,40.82968,-73.86942,Bronx,NY
10473,40.81817,-73.85889,Bronx,NY
10474,40.81061,-73.8846,Bronx,NY
10475,40.87528,-73.82702,Bronx,NY
10501,41.2954,-73.76006,Amawalk,NY
10502,41.01126,-73.8409,Ardsley,NY
10503,41.02654,-73.8753,Ardsley On Hudson,NY
10504,41.13065,-73.70629,Armonk,NY
10505,41.34207,-73.74791,Baldwin Place,NY
10506,41.1889,-73.63411,Bedford,NY
10507,41.22879,-73.6878,Bedford Hills,NY
10509,41.41205,-73.5937,Brewster,NY
10510,41.14152,-73.83411,Briarcliff Manor,NY
10511,41.26302,-73.94391,Buchanan,NY
10512,41.4483,-73.71054,Carmel,NY
10514,41.17331,-73.77071,Chappaqua,NY
10516,41.45342,-73.90233,Cold Spring,NY
10517,41.29837,-73.86013,Crompond,NY
10518,41.26787,-73.60073,Cross River,NY
10519,41.34701,-73.66196,Croton Falls,NY
10520,41.22183,-73.87348,Croton On Hudson,NY
10522,41.01221,-73.8646,Dobbs Ferry,NY
10523,41.06005,-73.81859,Elmsford,NY
10524,41.37076,-73.92201,Garrison,NY
10526,41.29388,-73.66171,Goldens Bridge,NY
10527,41.3195,-73.76502,Granite Springs,NY
10528,40.97819,-73.72306,Harrison,NY
10530,41.02304,-73.80764,Hartsdale,NY
10532,41.09873,-73.80066,Hawthorne,NY
10533,41.03826,-73.8556,Irvington,NY
10535,41.33536,-73.79965,Jefferson Valley,NY
10536,41.26971,-73.68943,Katonah,NY
10537,41.33784,-73.88528,Lake Peekskill,NY
10538,40.9376,-73.75707,Larchmont,NY
10540,41.32575,-73.72745,Lincolndale,NY
10541,41.37855,-73.75122,Mahopac,NY
10542,41.37115,-73.76436,Mahopac Falls,NY
10543,40.95274,-73.73645,Mamaroneck,NY
10545,41.17861,-73.83547,Maryknoll,NY
10546,41.19472,-73.8002,Millwood,NY
10547,41.31178,-73.84637,Mohegan Lake,NY
10548,41.24599,-73.93643,Montrose,NY
10549,41.19981,-73.72028,Mount Kisco,NY
10550,40.90627,-73.8351,Mount Vernon,NY
10552,40.92376,-73.82497,Mount Vernon,NY
10553,40.90858,-73.82161,Mount Vernon,NY
10560,41.33303,-73.60264,North Salem,NY
10562,41.19295,-73.8305,Ossining,NY
10566,41.28924,-73.91837,Peekskill,NY
10567,41.28922,-73.89633,Cortlandt Manor,NY
10570,41.12854,-73.78917,Pleasantville,NY
10573,41.01676,-73.67735,Port Chester,NY
10576,41.21323,-73.57289,Pound Ridge,NY
10577,41.03755,-73.71349,Purchase,NY
10578,41.31815,-73.673,Purdys,NY
10579,41.39651,-73.83384,Putnam Valley,NY
10580,40.97854,-73.69258,Rye,NY
10583,40.98916,-73.79443,Scarsdale,NY
10588,41.33222,-73.82624,Shrub Oak,NY
10589,41.33178,-73.6933,Somers,NY
10590,41.25421,-73.53719,South Salem,NY
10591,41.08436,-73.84653,Tarrytown,NY
10594,41.11579,-73.771,Thornwood,NY
10595,41.08626,-73.78097,Valhalla,NY
10596,41.25552,-73.95854,Verplanck,NY
10597,41.29423,-73.59703,Waccabuc,NY
10598,41.28309,-73.79516,Yorktown Heights,NY
10601,41.03288,-73.7648,White Plains,NY
10603,41.05364,-73.78014,White Plains,NY
10604,41.06013,-73.73955,West Harrison,NY
10605,41.0095,-73.74518,White Plains,NY
10606,41.02065,-73.77588,White Plains,NY
10607,41.03949,-73.81214,White Plains,NY
10701,40.94702,-73.88034,Yonkers,NY
10703,40.95765,-73.88114,Yonkers,NY
10704,40.91911,-73.86187,Yonkers,NY
10705,40.91929,-73.88928,Yonkers,NY
10706,40.99047,-73.86951,Hastings On Hudson,NY
10707,40.95961,-73.82291,Tuckahoe,NY
10708,40.9379,-73.83167,Bronxville,NY
10709,40.95337,-73.80885,Eastchester,NY
10710,40.96732,-73.84739,Yonkers,NY
10801,40.91751,-73.78396,New Rochelle,NY
10803,40.89978,-73.80619,Pelham,NY
10804,40.94914,-73.78629,New Rochelle,NY
10805,40.89593,-73.78028,New Rochelle,NY
10901,41.14554,-74.12504,Suffern,NY
10910,41.2773,-74.13625,Arden,NY
10911,41.30798,-73.99243,Bear Mountain,NY
10913,41.06845,-73.95574,Blauvelt,NY
10914,41.41671,-74.20087,Blooming Grove,NY
10915,41.54022,-74.35714,Bullville,NY
10916,41.44881,-74.24311,Campbell Hall,NY
10917,41.31851,-74.11094,Central Valley,NY
10918,41.34816,-74.25828,Chester,NY
10919,41.52836,-74.38327,Circleville,NY
10920,41.15477,-73.9393,Congers,NY
10921,41.3292,-74.3651,Florida,NY
10922,41.32794,-73.99604,Fort Montgomery,NY
10923,41.20265,-74.00031,Garnerville,NY
10924,41.3788,-74.3512,Goshen,NY
10925,41.20076,-74.29535,Greenwood Lake,NY
10926,41.25856,-74.1307,Harriman,NY
10927,41.19263,-73.96735,Haverstraw,NY
10928,41.3457,-74.00265,Highland Falls,NY
10930,41.3667,-74.11035,Highland Mills,NY
10931,41.12769,-74.17012,Hillburn,NY
10932,41.482,-74.46352,Howells,NY
10933,41.36527,-74.51106,Johnson,NY
10940,41.45149,-74.46997,Middletown,NY
10941,41.48923,-74.34556,Middletown,NY
10950,41.31919,-74.19825,Monroe,NY
10952,41.11385,-74.07975,Monsey,NY
10953,41.40581,-74.07783,Mountainville,NY
10954,41.09969,-74.01269,Nanuet,NY
10956,41.15562,-73.99314,New City,NY
10958,41.3764,-74.42881,New Hampton,NY
10960,41.08892,-73.92642,Nyack,NY
10962,41.04857,-73.96057,Orangeburg,NY
10963,41.4669,-74.54121,Otisville,NY
10964,41.01642,-73.91431,Palisades,NY
10965,41.06176,-74.01286,Pearl River,NY
10968,41.03976,-73.91804,Piermont,NY
10969,41.292,-74.48879,Pine Island,NY
10970,41.1852,-74.06568,Pomona,NY
10973,41.38442,-74.47566,Slate Hill,NY
10974,41.15826,-74.18993,Sloatsburg,NY
10975,41.25951,-74.17042,Southfields,NY
10976,41.02871,-73.92594,Sparkill,NY
10977,41.11749,-74.04825,Spring Valley,NY
10979,41.18237,-74.31877,Sterling Forest,NY
10980,41.23157,-74.05709,Stony Point,NY
10983,41.02747,-73.94826,Tappan,NY
10984,41.20928,-74.02008,Thiells,NY
10985,41.57697,-74.35782,Thompson Ridge,NY
10986,41.27917,-73.99445,Tomkins Cove,NY
10987,41.20737,-74.22284,Tuxedo Park,NY
10988,41.30133,-74.56218,Unionville,NY
10989,41.12479,-73.93632,Valley Cottage,NY
10990,41.2651,-74.3663,Warwick,NY
10992,41.42648,-74.16567,Washingtonville,NY
10993,41.21011,-73.97565,West Haverstraw,NY
10994,41.09702,-73.97322,West Nyack,NY
10996,41.38996,-73.97257,West Point,NY
10998,41.33118,-74.53989,Westtown,NY
11001,40.72356,-73.70451,Floral Park,NY
11003,40.70143,-73.7078,Elmont,NY
11004,40.74621,-73.71147,Glen Oaks,NY
11005,40.75661,-73.71424,Floral Park,NY
11010,40.70066,-73.67514,Franklin Square,NY
11020,40.77098,-73.71293,Great Neck,NY
11021,40.78644,-73.7289,Great Neck,NY
11023,40.7994,-73.73282,Great Neck,NY
11024,40.81642,-73.74205,Great Neck,NY
11030,40.79293,-73.68868,Manhasset,NY
11040,40.74572,-73.67979,New Hyde Park,NY
11042,40.75854,-73.6975,New Hyde Park,NY
11050,40.83815,-73.69113,Port Washington,NY
11096,40.62143,-73.75292,Inwood,NY
11101,40.74679,-73.93916,Long Island City,NY
11102,40.77161,-73.92619,Astoria,NY
11103,40.76261,-73.91334,Astoria,NY
11104,40.74484,-73.92049,Sunnyside,NY
11105,40.779,-73.90652,Astoria,NY
11106,40.76191,-73.93169,Astoria,NY
11109,40.7463,-73.95699,Long Island City,NY
11201,40.69477,-73.99031,Brooklyn,NY
11203,40.64958,-73.93431,Brooklyn,NY
11204,40.61883,-73.98496,Brooklyn,NY
11205,40.69654,-73.96807,Brooklyn,NY
11206,40.7019,-73.94254,Brooklyn,NY
11207,40.67016,-73.89383,Brooklyn,NY
11208,40.67481,-73.87243,Brooklyn,NY
11209,40.62175,-74.03013,Brooklyn,NY
11210,40.62801,-73.94631,Brooklyn,NY
11211,40.71428,-73.94602,Brooklyn,NY
11212,40.6629,-73.91308,Brooklyn,NY
11213,40.67117,-73.93632,Brooklyn,NY
11214,40.59928,-73.99644,Brooklyn,NY
11215,40.66255,-73.98687,Brooklyn,NY
11216,40.68085,-73.94929,Brooklyn,NY
11217,40.68242,-73.97943,Brooklyn,NY
11218,40.64315,-73.97645,Brooklyn,NY
11219,40.63267,-73.99672,Brooklyn,NY
11220,40.64142,-74.01741,Brooklyn,NY
11221,40.6914,-73.92764,Brooklyn,NY
11222,40.72862,-73.94764,Brooklyn,NY
11223,40.59711,-73.97344,Brooklyn,NY
11224,40.57652,-73.9891,Brooklyn,NY
11225,40.6631,-73.95392,Brooklyn,NY
11226,40.64636,-73.95666,Brooklyn,NY
11228,40.61678,-74.01337,Brooklyn,NY
11229,40.60047,-73.94453,Brooklyn,NY
11230,40.6221,-73.96525,Brooklyn,NY
11231,40.67603,-74.00644,Brooklyn,NY
11232,40.65692,-74.00727,Brooklyn,NY
11233,40.67827,-73.91994,Brooklyn,NY
11234,40.6072,-73.91107,Brooklyn,NY
11235,40.58411,-73.94331,Brooklyn,NY
11236,40.63951,-73.90098,Brooklyn,NY
11237,40.70427,-73.92108,Brooklyn,NY
11238,40.67105,-73.96636,Brooklyn,NY
11239,40.64733,-73.87136,Brooklyn,NY
11249,40.71121,-73.96318,Brooklyn,NY
11354,40.7686,-73.82743,Flushing,NY
11355,40.75143,-73.82125,Flushing,NY
11356,40.78492,-73.84149,College Point,NY
11357,40.78636,-73.81094,Whitestone,NY
11358,40.76038,-73.79648,Flushing,NY
11359,40.79147,-73.77662,Bayside,NY
11360,40.7805,-73.78159,Bayside,NY
11361,40.76393,-73.77294,Bayside,NY
11362,40.75899,-73.73583,Little Neck,NY
11363,40.77251,-73.74708,Little Neck,NY
11364,40.74625,-73.75598,Oakland Gardens,NY
11365,40.73983,-73.79499,Fresh Meadows,NY
11366,40.73112,-73.7804,Fresh Meadows,NY
11367,40.73044,-73.82274,Flushing,NY
11368,40.74962,-73.85264,Corona,NY
11369,40.76345,-73.87222,East Elmhurst,NY
11370,40.77554,-73.88766,East Elmhurst,NY
11371,40.77445,-73.87316,Flushing,NY
11372,40.75172,-73.88367,Jackson Heights,NY
11373,40.73892,-73.87854,Elmhurst,NY
11374,40.72647,-73.86144,Rego Park,NY
11375,40.72315,-73.84373,Forest Hills,NY
11377,40.74483,-73.90516,Woodside,NY
11378,40.72493,-73.91034,Maspeth,NY
11379,40.71709,-73.88056,Middle Village,NY
11385,40.70103,-73.89011,Ridgewood,NY
11411,40.69406,-73.73623,Cambria Heights,NY
11412,40.69804,-73.759,Saint Albans,NY
11413,40.67002,-73.75116,Springfield Gardens,NY
11414,40.65818,-73.8448,Howard Beach,NY
11415,40.70808,-73.82801,Kew Gardens,NY
11416,40.68458,-73.84967,Ozone Park,NY
11417,40.67641,-73.84455,Ozone Park,NY
11418,40.70032,-73.83603,Richmond Hill,NY
11419,40.68863,-73.82302,South Richmond Hill,NY
11420,40.67352,-73.8177,South Ozone Park,NY
11421,40.69403,-73.85865,Woodhaven,NY
11422,40.66053,-73.73658,Rosedale,NY
11423,40.71564,-73.76826,Hollis,NY
11424,40.71397,-73.82809,Jamaica,NY
11426,40.73641,-73.7223,Bellerose,NY
11427,40.73094,-73.74569,Queens Village,NY
11428,40.72099,-73.74222,Queens Village,NY
11429,40.70958,-73.73843,Queens Village,NY
11430,40.64703,-73.78717,Jamaica,NY
11432,40.71491,-73.79295,Jamaica,NY
11433,40.69805,-73.78675,Jamaica,NY
11434,40.67683,-73.77623,Jamaica,NY
11435,40.70111,-73.80968,Jamaica,NY
11436,40.67587,-73.79664,Jamaica,NY
11439,40.72195,-73.79455,Jamaica,NY
11451,40.7012,-73.79579,Jamaica,NY
11501,40.74629,-73.63921,Mineola,NY
11507,40.77082,-73.6521,Albertson,NY
11509,40.58872,-73.7286,Atlantic Beach,NY
11510,40.65027,-73.60809,Baldwin,NY
11514,40.74979,-73.61298,Carle Place,NY
11516,40.6258,-73.7263,Cedarhurst,NY
11518,40.63772,-73.66691,East Rockaway,NY
11520,40.65007,-73.58305,Freeport,NY
11530,40.72716,-73.63654,Garden City,NY
11542,40.87073,-73.62879,Glen Cove,NY
11545,40.82685,-73.58853,Glen Head,NY
11547,40.82881,-73.64505,Glenwood Landing,NY
11548,40.81414,-73.6097,Greenvale,NY
11549,40.71896,-73.59973,Hempstead,NY
11550,40.70158,-73.62039,Hempstead,NY
11552,40.6916,-73.65073,West Hempstead,NY
11553,40.70529,-73.5923,Uniondale,NY
11554,40.71974,-73.56044,East Meadow,NY
11556,40.71997,-73.58327,Uniondale,NY
11557,40.63723,-73.6921,Hewlett,NY
11558,40.60539,-73.64952,Island Park,NY
11559,40.60615,-73.71688,Lawrence,NY
11560,40.88068,-73.59057,Locust Valley,NY
11561,40.58969,-73.64455,Long Beach,NY
11563,40.65746,-73.67408,Lynbrook,NY
11565,40.67505,-73.67177,Malverne,NY
11566,40.66307,-73.55407,Merrick,NY
11568,40.78659,-73.59719,Old Westbury,NY
11569,40.5903,-73.58046,Point Lookout,NY
11570,40.66504,-73.63882,Rockville Centre,NY
11572,40.63231,-73.63686,Oceanside,NY
11575,40.68044,-73.58525,Roosevelt,NY
11576,40.79791,-73.64711,Roslyn,NY
11577,40.78288,-73.6391,Roslyn Heights,NY
11579,40.84406,-73.64426,Sea Cliff,NY
11580,40.67491,-73.70374,Valley Stream,NY
11581,40.65153,-73.71653,Valley Stream,NY
11590,40.75541,-73.57463,Westbury,NY
11596,40.75968,-73.6422,Williston Park,NY
11598,40.63109,-73.71188,Woodmere,NY
11691,40.60152,-73.76173,Far Rockaway,NY
11692,40.59373,-73.79201,Arverne,NY
11693,40.59649,-73.81663,Far Rockaway,NY
11694,40.57532,-73.85099,Rockaway Park,NY
11697,40.55749,-73.91361,Breezy Point,NY
11701,40.6817,-73.41289,Amityville,NY
11702,40.65155,-73.33824,Babylon,NY
11703,40.73325,-73.32533,North Babylon,NY
11704,40.71623,-73.35908,West Babylon,NY
11705,40.74514,-73.05461,Bayport,NY
11706,40.706,-73.24208,Bay Shore,NY
11709,40.90665,-73.56005,Bayville,NY
11710,40.67217,-73.53293,Bellmore,NY
11713,40.77774,-72.94253,Bellport,NY
11714,40.74267,-73.48615,Bethpage,NY
11715,40.75005,-73.03531,Blue Point,NY
11716,40.77131,-73.12729,Bohemia,NY
11717,40.78405,-73.25223,Brentwood,NY
11718,40.71891,-73.26391,Brightwaters,NY
11719,40.77935,-72.91175,Brookhaven,NY
11720,40.87025,-73.08202,Centereach,NY
11721,40.89362,-73.37009,Centerport,NY
11722,40.78358,-73.19657,Central Islip,NY
11724,40.86522,-73.45288,Cold Spring Harbor,NY
11725,40.84056,-73.28085,Commack,NY
11726,40.67891,-73.39564,Copiague,NY
11727,40.88019,-73.00368,Coram,NY
11729,40.76249,-73.32161,Deer Park,NY
11730,40.72701,-73.18456,East Islip,NY
11731,40.86262,-73.31703,East Northport,NY
11732,40.84245,-73.53916,East Norwich,NY
11733,40.93742,-73.10544,East Setauket,NY
11735,40.73177,-73.43284,Farmingdale,NY
11738,40.83779,-73.03761,Farmingville,NY
11739,40.71058,-73.16275,Great River,NY
11740,40.86536,-73.36118,Greenlawn,NY
11741,40.79473,-73.07043,Holbrook,NY
11742,40.81034,-73.0419,Holtsville,NY
11743,40.88018,-73.4266,Huntington,NY
11746,40.81421,-73.3608,Huntington Station,NY
11747,40.78372,-73.40931,Melville,NY
11749,40.80674,-73.1708,Islandia,NY
11751,40.72999,-73.21424,Islip,NY
11752,40.75791,-73.17359,Islip Terrace,NY
11753,40.78976,-73.5411,Jericho,NY
11754,40.88771,-73.24738,Kings Park,NY
11755,40.8583,-73.11748,Lake Grove,NY
11756,40.72545,-73.51656,Levittown,NY
11757,40.68892,-73.37356,Lindenhurst,NY
11758,40.65361,-73.45626,Massapequa,NY
11762,40.68283,-73.44707,Massapequa Park,NY
11763,40.82529,-72.98245,Medford,NY
11764,40.93585,-72.97544,Miller Place,NY
11765,40.88249,-73.55862,Mill Neck,NY
11766,40.93602,-73.01645,Mount Sinai,NY
11767,40.84438,-73.14535,Nesconset,NY
11768,40.91052,-73.32611,Northport,NY
11769,40.73703,-73.12929,Oakdale,NY
11770,40.64945,-73.14123,Ocean Beach,NY
11771,40.8674,-73.52651,Oyster Bay,NY
11772,40.76118,-72.9875,Patchogue,NY
11776,40.91345,-73.04567,Port Jefferson Station,NY
11777,40.95171,-73.0645,Port Jefferson,NY
11778,40.94312,-72.93073,Rocky Point,NY
11779,40.8127,-73.1156,Ronkonkoma,NY
11780,40.89249,-73.16973,Saint James,NY
11782,40.73727,-73.08024,Sayville,NY
11783,40.67766,-73.49068,Seaford,NY
11784,40.86855,-73.0422,Selden,NY
11786,40.94711,-72.88939,Shoreham,NY
11787,40.85338,-73.21089,Smithtown,NY
11788,40.81808,-73.21318,Hauppauge,NY
11789,40.95759,-72.97214,Sound Beach,NY
11790,40.90719,-73.12777,Stony Brook,NY
11791,40.82819,-73.50282,Syosset,NY
11792,40.94832,-72.8302,Wading River,NY
11793,40.6462,-73.51024,Wantagh,NY
11794,40.91915,-73.12475,Stony Brook,NY
11795,40.70803,-73.29827,West Islip,NY
11796,40.72958,-73.09986,West Sayville,NY
11797,40.81739,-73.47004,Woodbury,NY
11798,40.752,-73.37497,Wyandanch,NY
11801,40.76256,-73.52383,Hicksville,NY
11803,40.78177,-73.4733,Plainview,NY
11804,40.75829,-73.45706,Old Bethpage,NY
11901,40.92424,-72.64697,Riverhead,NY
11930,40.98877,-72.10482,Amagansett,NY
11931,40.93347,-72.62195,Aquebogue,NY
11932,40.93322,-72.30603,Bridgehampton,NY
11933,40.92449,-72.75453,Calverton,NY
11934,40.80201,-72.79428,Center Moriches,NY
11935,41.01795,-72.48933,Cutchogue,NY
11937,40.99714,-72.20253,East Hampton,NY
11939,41.12627,-72.34223,East Marion,NY
11940,40.80819,-72.75664,East Moriches,NY
11941,40.83311,-72.72315,Eastport,NY
11942,40.84901,-72.57764,East Quogue,NY
11944,41.09888,-72.37223,Greenport,NY
11946,40.87033,-72.52294,Hampton Bays,NY
11947,40.94302,-72.58189,Jamesport,NY
11948,40.9662,-72.55797,Laurel,NY
11949,40.86496,-72.80097,Manorville,NY
11950,40.80627,-72.84734,Mastic,NY
11951,40.76624,-72.83655,Mastic Beach,NY
11952,40.99716,-72.54369,Mattituck,NY
11953,40.88585,-72.95054,Middle Island,NY
11954,41.04458,-71.9518,Montauk,NY
11955,40.80777,-72.82289,Moriches,NY
11956,40.98067,-72.46868,New Suffolk,NY
11957,41.1492,-72.26181,Orient,NY
11958,41.03688,-72.4613,Peconic,NY
11959,40.82903,-72.60977,Quogue,NY
11960,40.80894,-72.70615,Remsenburg,NY
11961,40.90458,-72.88488,Ridge,NY
11962,40.93715,-72.27379,Sagaponack,NY
11963,40.99921,-72.32271,Sag Harbor,NY
11964,41.05743,-72.31492,Shelter Island,NY
11965,41.07727,-72.34244,Shelter Island Heights,NY
11967,40.80092,-72.87611,Shirley,NY
11968,40.90035,-72.42081,Southampton,NY
11970,40.94029,-72.57403,South Jamesport,NY
11971,41.05949,-72.42617,Southold,NY
11972,40.82362,-72.70045,Speonk,NY
11973,40.86583,-72.88718,Upton,NY
11975,40.95146,-72.25093,Wainscott,NY
11976,40.92986,-72.34721,Water Mill,NY
11977,40.82769,-72.67947,Westhampton,NY
11978,40.82878,-72.64669,Westhampton Beach,NY
11980,40.8321,-72.92198,Yaphank,NY
12007,42.48889,-73.93159,Alcove,NY
12008,42.85367,-73.9063,Alplaus,NY
12009,42.69824,-74.03398,Altamont,NY
12010,42.93752,-74.17287,Amsterdam,NY
12015,42.28315,-73.82543,Athens,NY
12017,42.31453,-73.45682,Austerlitz,NY
12018,42.62926,-73.52662,Averill Park,NY
12019,42.92993,-73.88245,Ballston Lake,NY
12020,43.00208,-73.87401,Ballston Spa,NY
12022,42.66653,-73.33401,Berlin,NY
12023,42.60656,-74.16573,Berne,NY
12024,42.48134,-73.53419,Brainard,NY
12025,43.09142,-74.11924,Broadalbin,NY
12027,42.92122,-73.90872,Burnt Hills,NY
12028,42.94545,-73.44213,Buskirk,NY
12029,42.40397,-73.42466,Canaan,NY
12031,42.76579,-74.46617,Carlisle,NY
12032,43.24042,-74.55666,Caroga Lake,NY
12033,42.53665,-73.70558,Castleton On Hudson,NY
12035,42.73453,-74.37534,Central Bridge,NY
12036,42.53564,-74.68468,Charlotteville,NY
12037,42.33506,-73.55714,Chatham,NY
12040,42.63047,-73.35916,Cherry Plain,NY
12041,42.55893,-73.97028,Clarksville,NY
12042,42.38185,-73.89162,Climax,NY
12043,42.70357,-74.5267,Cobleskill,NY
12045,42.47974,-73.79682,Coeymans,NY
12046,42.48864,-73.92119,Coeymans Hollow,NY
12047,42.78396,-73.72655,Cohoes,NY
12051,42.34493,-73.83938,Coxsackie,NY
12052,42.75767,-73.47847,Cropseyville,NY
12053,42.75283,-74.18791,Delanson,NY
12054,42.60764,-73.86864,Delmar,NY
12056,42.76761,-74.0905,Duanesburg,NY
12057,42.97316,-73.34335,Eagle Bridge,NY
12058,42.3498,-73.923,Earlton,NY
12059,42.61403,-74.05811,East Berne,NY
12060,42.41325,-73.49284,East Chatham,NY
12061,42.59915,-73.65658,East Greenbush,NY
12062,42.52871,-73.501,East Nassau,NY
12063,42.56442,-73.63826,East Schodack,NY
12064,42.60711,-74.65887,East Worcester,NY
12065,42.85402,-73.78654,Clifton Park,NY
12066,42.78011,-74.30291,Esperance,NY
12067,42.56083,-73.91663,Feura Bush,NY
12068,42.95701,-74.40467,Fonda,NY
12069,42.94336,-74.28193,Fort Hunter,NY
12070,42.98513,-74.25441,Fort Johnson,NY
12071,42.56971,-74.41521,Fultonham,NY
12072,42.88102,-74.36164,Fultonville,NY
12074,43.05219,-74.04709,Galway,NY
12075,42.30145,-73.64046,Ghent,NY
12076,42.40868,-74.38506,Gilboa,NY
12077,42.59426,-73.7841,Glenmont,NY
12078,43.12338,-74.36255,Gloversville,NY
12082,42.76998,-73.44672,Grafton,NY
12083,42.43151,-74.03155,Greenville,NY
12084,42.70411,-73.90182,Guilderland,NY
12085,42.70043,-73.96659,Guilderland Center,NY
12086,42.99684,-74.10508,Hagaman,NY
12087,42.42794,-73.8931,Hannacroix,NY
12090,42.88073,-73.35624,Hoosick Falls,NY
12092,42.70396,-74.38456,Howes Cave,NY
12093,42.49599,-74.6262,Jefferson,NY
12094,42.89091,-73.48737,Johnsonville,NY
12095,43.03151,-74.41553,Johnstown,NY
12106,42.38871,-73.71228,Kinderhook,NY
12108,43.47045,-74.42768,Lake Pleasant,NY
12110,42.75349,-73.77671,Latham,NY
12115,42.46747,-73.59338,Malden Bridge,NY
12116,42.53849,-74.91278,Maryland,NY
12117,43.16894,-74.25557,Mayfield,NY
12118,42.92096,-73.72049,Mechanicville,NY
12120,42.45781,-74.1409,Medusa,NY
12121,42.84368,-73.60398,Melrose,NY
12122,42.54341,-74.31138,Middleburgh,NY
12123,42.52239,-73.60636,Nassau,NY
12124,42.44652,-73.78494,New Baltimore,NY
12125,42.47633,-73.40394,New Lebanon,NY
12130,42.44156,-73.65835,Niverville,NY
12131,42.46573,-74.46249,North Blenheim,NY
12132,42.47102,-73.63362,North Chatham,NY
12134,43.26533,-74.23059,Northville,NY
12136,42.43249,-73.56016,Old Chatham,NY
12137,42.85727,-74.12922,Pattersonville,NY
12138,42.73735,-73.37128,Petersburg,NY
12139,43.52096,-74.56552,Piseco,NY
12140,42.689,-73.56689,Poestenkill,NY
12143,42.48525,-73.85218,Ravena,NY
12144,42.63106,-73.71801,Rensselaer,NY
12147,42.51365,-74.15147,Rensselaerville,NY
12148,42.83361,-73.84652,Rexford,NY
12149,42.62011,-74.56692,Richmondville,NY
12150,42.87613,-74.04923,Rotterdam Junction,NY
12151,42.92553,-73.78874,Round Lake,NY
12153,42.63606,-73.46692,Sand Lake,NY
12154,42.93713,-73.60124,Schaghticoke,NY
12155,42.59229,-74.82337,Schenevus,NY
12156,42.47764,-73.74354,Schodack Landing,NY
12157,42.66742,-74.29892,Schoharie,NY
12158,42.53927,-73.81903,Selkirk,NY
12159,42.64328,-73.88503,Slingerlands,NY
12160,42.76325,-74.36619,Sloansville,NY
12161,42.53369,-73.84606,South Bethlehem,NY
12164,43.62883,-74.42717,Speculator,NY
12165,42.31518,-73.50756,Spencertown,NY
12166,42.83846,-74.45644,Sprakers,NY
12167,42.42101,-74.59011,Stamford,NY
12168,42.5614,-73.3751,Stephentown,NY
12169,42.58249,-73.43559,Stephentown,NY
12170,42.99936,-73.66234,Stillwater,NY
12172,42.28915,-73.73895,Stottville,NY
12173,42.39042,-73.76196,Stuyvesant,NY
12174,42.35314,-73.72802,Stuyvesant Falls,NY
12175,42.55489,-74.56161,Summit,NY
12176,42.38839,-73.96787,Surprise,NY
12177,42.95184,-74.28459,Tribes Hill,NY
12180,42.7516,-73.59997,Troy,NY
12182,42.80044,-73.63519,Troy,NY
12183,42.74742,-73.69259,Troy,NY
12184,42.42272,-73.65387,Valatie,NY
12185,42.90102,-73.53507,Valley Falls,NY
12186,42.62502,-73.9737,Voorheesville,NY
12187,42.62632,-74.46537,Warnerville,NY
12188,42.8199,-73.69589,Waterford,NY
12189,42.73618,-73.71688,Watervliet,NY
12190,43.47359,-74.2733,Wells,NY
12192,42.40428,-73.82136,West Coxsackie,NY
12193,42.51713,-74.04327,Westerlo,NY
12194,42.53839,-74.45431,West Fulton,NY
12195,42.47876,-73.46505,West Lebanon,NY
12196,42.63149,-73.61708,West Sand Lake,NY
12197,42.6094,-74.72587,Worcester,NY
12198,42.67819,-73.63285,Wynantskill,NY
12202,42.63355,-73.763,Albany,NY
12203,42.68138,-73.85099,Albany,NY
12204,42.68723,-73.72869,Albany,NY
12205,42.71719,-73.83006,Albany,NY
12206,42.67415,-73.78196,Albany,NY
12207,42.65657,-73.74749,Albany,NY
12208,42.65293,-73.80835,Albany,NY
12209,42.6382,-73.78976,Albany,NY
12210,42.66399,-73.75985,Albany,NY
12211,42.7083,-73.76393,Albany,NY
12222,42.68637,-73.82656,Albany,NY
12226,42.67931,-73.80987,Albany,NY
12302,42.88188,-73.98323,Schenectady,NY
12303,42.74938,-73.92562,Schenectady,NY
12304,42.77375,-73.89742,Schenectady,NY
12305,42.81219,-73.95036,Schenectady,NY
12306,42.80686,-74.03344,Schenectady,NY
12307,42.80507,-73.93341,Schenectady,NY
12308,42.82152,-73.92006,Schenectady,NY
12309,42.79693,-73.86785,Schenectady,NY
12401,41.93504,-74.05446,Kingston,NY
12404,41.81602,-74.23632,Accord,NY
12405,42.31585,-74.0989,Acra,NY
12406,42.09647,-74.56502,Arkville,NY
12407,42.30075,-74.35343,Ashland,NY
12409,42.05662,-74.16655,Bearsville,NY
12410,42.0706,-74.45212,Big Indian,NY
12411,41.87975,-74.04094,Bloomington,NY
12412,42.01218,-74.27698,Boiceville,NY
12413,42.31338,-74.02628,Cairo,NY
12414,42.2211,-73.92356,Catskill,NY
12416,42.09554,-74.28592,Chichester,NY
12417,41.9073,-73.98943,Connelly,NY
12418,42.35863,-74.1609,Cornwallville,NY
12419,41.85948,-74.10265,Cottekill,NY
12420,41.6743,-74.37769,Cragsmoor,NY
12421,42.2512,-74.5336,Denver,NY
12422,42.39205,-74.20232,Durham,NY
12423,42.37968,-74.11136,East Durham,NY
12424,42.24689,-74.14358,East Jewett,NY
12427,42.14771,-74.11921,Elka Park,NY
12428,41.73817,-74.44615,Ellenville,NY
12429,41.83323,-73.961,Esopus,NY
12430,42.20306,-74.49933,Fleischmanns,NY
12431,42.35877,-74.01843,Freehold,NY
12432,42.04702,-73.94403,Glasco,NY
12433,42.00533,-74.15526,Glenford,NY
12434,42.36491,-74.50793,Grand Gorge,NY
12435,41.72715,-74.51148,Greenfield Park,NY
12436,42.20447,-74.0746,Haines Falls,NY
12438,42.21251,-74.59667,Halcottsville,NY
12439,42.29674,-74.18789,Hensonville,NY
12440,41.78665,-74.16338,High Falls,NY
12441,42.1502,-74.50625,Highmount,NY
12442,42.22275,-74.23545,Hunter,NY
12443,41.93388,-74.08536,Hurley,NY
12444,42.24942,-74.28993,Jewett,NY
12446,41.79063,-74.31655,Kerhonkson,NY
12448,42.07955,-74.20067,Lake Hill,NY
12449,41.99377,-73.99338,Lake Katrine,NY
12450,42.13804,-74.22176,Lanesville,NY
12451,42.30337,-73.94802,Leeds,NY
12452,42.23891,-74.34986,Lexington,NY
12453,42.0929,-73.93629,Malden On Hudson,NY
12454,42.2869,-74.15038,Maplecrest,NY
12455,42.14871,-74.66334,Margaretville,NY
12456,42.03308,-73.99703,Mount Marion,NY
12457,42.03997,-74.24659,Mount Tremper,NY
12458,41.82273,-74.41666,Napanoch,NY
12459,42.23976,-74.6805,New Kingston,NY
12460,42.42357,-74.16676,Oak Hill,NY
12461,41.90531,-74.25246,Olivebridge,NY
12463,42.1895,-74.01573,Palenville,NY
12464,42.04071,-74.34452,Phoenicia,NY
12465,42.15278,-74.46725,Pine Hill,NY
12466,41.90671,-73.97826,Port Ewen,NY
12468,42.29998,-74.41375,Prattsville,NY
12469,42.44521,-74.2421,Preston Hollow,NY
12470,42.26932,-74.05515,Purling,NY
12471,41.83799,-74.04195,Rifton,NY
12472,41.84732,-74.07447,Rosendale,NY
12473,42.26157,-74.02827,Round Top,NY
12474,42.29378,-74.58117,Roxbury,NY
12475,42.01397,-74.01332,Ruby,NY
12477,42.08528,-74.00028,Saugerties,NY
12480,42.13803,-74.37683,Shandaken,NY
12481,41.97519,-74.22718,Shokan,NY
12482,42.26841,-73.95587,South Cairo,NY
12483,41.66796,-74.44184,Spring Glen,NY
12484,41.87024,-74.17338,Stone Ridge,NY
12485,42.20507,-74.15288,Tannersville,NY
12486,41.83438,-74.06235,Tillson,NY
12487,41.86095,-73.99555,Ulster Park,NY
12489,41.75597,-74.35462,Wawarsing,NY
12490,42.12355,-73.9251,West Camp,NY
12491,41.96957,-74.13311,West Hurley,NY
12492,42.18758,-74.33453,West Kill,NY
12493,41.79316,-73.97283,West Park,NY
12494,41.94857,-74.30169,West Shokan,NY
12495,42.08264,-74.24563,Willow,NY
12496,42.32669,-74.27256,Windham,NY
12498,42.04772,-74.11007,Woodstock,NY
12501,41.85664,-73.55953,Amenia,NY
12502,42.08324,-73.65409,Ancram,NY
12503,42.03615,-73.58139,Ancramdale,NY
12504,42.02342,-73.9094,Annandale On Hudson,NY
12507,42.00735,-73.92126,Barrytown,NY
12508,41.49637,-73.95351,Beacon,NY
12512,41.5542,-73.96471,Chelsea,NY
12513,42.21661,-73.71639,Claverack,NY
12514,41.87137,-73.76274,Clinton Corners,NY
12515,41.68008,-74.06451,Clintondale,NY
12516,42.10722,-73.55343,Copake,NY
12517,42.13392,-73.51103,Copake Falls,NY
12518,41.41847,-74.03571,Cornwall,NY
12520,41.43362,-74.00693,Cornwall On Hudson,NY
12521,42.17071,-73.65164,Craryville,NY
12522,41.72693,-73.58893,Dover Plains,NY
12523,42.08627,-73.75311,Elizaville,NY
12524,41.53092,-73.89245,Fishkill,NY
12525,41.68115,-74.17751,Gardiner,NY
12526,42.12236,-73.85938,Germantown,NY
12527,41.51931,-73.93703,Glenham,NY
12528,41.72273,-74.00477,Highland,NY
12529,42.21335,-73.53802,Hillsdale,NY
12530,42.20692,-73.68413,Hollowville,NY
12531,41.53689,-73.66917,Holmes,NY
12533,41.55925,-73.79401,Hopewell Junction,NY
12534,42.22434,-73.75427,Hudson,NY
12538,41.79246,-73.89336,Hyde Park,NY
12540,41.67073,-73.72524,Lagrangeville,NY
12542,41.60772,-73.99666,Marlboro,NY
12543,41.48602,-74.22354,Maybrook,NY
12544,42.26129,-73.66822,Mellenville,NY
12545,41.7914,-73.67251,Millbrook,NY
12546,41.96627,-73.53313,Millerton,NY
12547,41.65463,-73.98322,Milton,NY
12548,41.66307,-74.10157,Modena,NY
12549,41.52957,-74.25843,Montgomery,NY
12550,41.53671,-74.05196,Newburgh,NY
12553,41.46146,-74.07311,New Windsor,NY
12561,41.75602,-74.0958,New Paltz,NY
12563,41.49417,-73.5891,Patterson,NY
12564,41.57827,-73.5862,Pawling,NY
12565,42.24849,-73.64584,Philmont,NY
12566,41.62223,-74.33256,Pine Bush,NY
12567,41.98206,-73.65211,Pine Plains,NY
12569,41.7346,-73.79731,Pleasant Valley,NY
12570,41.62377,-73.66983,Poughquag,NY
12571,42.00663,-73.81152,Red Hook,NY
12572,41.92548,-73.8717,Rhinebeck,NY
12574,41.91764,-73.94566,Rhinecliff,NY
12575,41.48514,-74.15714,Rock Tavern,NY
12577,41.42048,-74.11678,Salisbury Mills,NY
12578,41.80629,-73.79673,Salt Point,NY
12580,41.85348,-73.87302,Staatsburg,NY
12581,41.90625,-73.69374,Stanfordville,NY
12582,41.54693,-73.72919,Stormville,NY
12583,42.05625,-73.88014,Tivoli,NY
12585,41.72396,-73.7025,Verbank,NY
12586,41.5657,-74.17289,Walden,NY
12589,41.6278,-74.15875,Wallkill,NY
12590,41.59559,-73.88774,Wappingers Falls,NY
12592,41.78601,-73.5528,Wassaic,NY
12594,41.66049,-73.56004,Wingdale,NY
12601,41.70602,-73.91119,Poughkeepsie,NY
12603,41.67816,-73.86744,Poughkeepsie,NY
12604,41.68844,-73.89448,Poughkeepsie,NY
12701,41.65125,-74.6982,Monticello,NY
12719,41.48431,-74.90543,Barryville,NY
12720,41.65794,-74.90029,Bethel,NY
12721,41.56741,-74.42832,Bloomingburg,NY
12722,41.59042,-74.3748,Burlingham,NY
12723,41.77809,-75.02751,Callicoon,NY
12724,41.85195,-74.93535,Callicoon Center,NY
12725,41.95679,-74.54794,Claryville,NY
12726,41.69269,-74.96902,Cochecton,NY
12729,41.49411,-74.61582,Cuddebackville,NY
12732,41.56075,-74.87353,Eldred,NY
12733,41.73378,-74.6102,Fallsburg,NY
12734,41.7354,-74.7531,Ferndale,NY
12736,41.85327,-75.01917,Fremont Center,NY
12737,41.50529,-74.79941,Glen Spey,NY
12738,41.66009,-74.59119,Glen Wild,NY
12740,41.89499,-74.46616,Grahamsville,NY
12741,41.84368,-75.07816,Hankins,NY
12742,41.71796,-74.72108,Harris,NY
12743,41.54065,-74.84687,Highland Lake,NY
12745,41.78503,-75.02633,Hortonville,NY
12746,41.44929,-74.65582,Huguenot,NY
12747,41.76596,-74.65934,Hurleyville,NY
12748,41.77604,-74.91845,Jeffersonville,NY
12749,41.69149,-74.82768,Kauneonga Lake,NY
12750,41.73595,-74.96382,Kenoza Lake,NY
12751,41.69209,-74.66119,Kiamesha Lake,NY
12752,41.68278,-74.9905,Lake Huntington,NY
12754,41.80004,-74.73643,Liberty,NY
12758,41.9428,-74.74942,Livingston Manor,NY
12759,41.78399,-74.65758,Loch Sheldrake,NY
12760,41.90063,-75.10559,Long Eddy,NY
12762,41.65582,-74.79462,Mongaup Valley,NY
12763,41.68221,-74.52205,Mountain Dale,NY
12764,41.59639,-74.98515,Narrowsburg,NY
12765,41.85265,-74.6281,Neversink,NY
12766,41.81408,-74.97923,North Branch,NY
12767,41.83504,-75.00284,Obernburg,NY
12768,41.87157,-74.71507,Parksville,NY
12769,41.65925,-74.47071,Phillipsport,NY
12770,41.44681,-74.85028,Pond Eddy,NY
12771,41.37394,-74.62429,Port Jervis,NY
12775,41.62266,-74.58232,Rock Hill,NY
12776,41.96486,-74.93197,Roscoe,NY
12777,41.55172,-74.71067,Forestburgh,NY
12778,41.66174,-74.8138,Smallwood,NY
12779,41.69804,-74.62703,South Fallsburg,NY
12780,41.44514,-74.71989,Sparrow Bush,NY
12781,41.61448,-74.47208,Summitville,NY
12783,41.74026,-74.83502,Swan Lake,NY
12784,41.66907,-74.61485,Thompsonville,NY
12785,41.52429,-74.58051,Westbrookville,NY
12786,41.64306,-74.85393,White Lake,NY
12787,41.7931,-74.8365,White Sulphur Springs,NY
12788,41.79552,-74.58846,Woodbourne,NY
12789,41.71374,-74.57233,Woodridge,NY
12790,41.5863,-74.51705,Wurtsboro,NY
12791,41.81126,-74.88692,Youngsville,NY
12792,41.51447,-74.95172,Yulan,NY
12801,43.31097,-73.64545,Glens Falls,NY
12803,43.28891,-73.63024,South Glens Falls,NY
12804,43.3375,-73.68307,Queensbury,NY
12808,43.74782,-73.75393,Adirondack,NY
12809,43.24097,-73.4624,Argyle,NY
12810,43.49862,-73.95217,Athol,NY
12811,43.57502,-74.07508,Bakers Mills,NY
12812,43.85731,-74.41213,Blue Mountain Lake,NY
12814,43.6004,-73.63678,Bolton Landing,NY
12815,43.70161,-73.69459,Brant Lake,NY
12816,43.05085,-73.37829,Cambridge,NY
12817,43.63697,-73.82614,Chestertown,NY
12819,43.61144,-73.46315,Clemons,NY
12820,43.46022,-73.64067,Cleverdale,NY
12821,43.45866,-73.41332,Comstock,NY
12822,43.2407,-73.88959,Corinth,NY
12823,43.17945,-73.40628,Cossayuna,NY
12824,43.5279,-73.71386,Diamond Point,NY
12827,43.44917,-73.51241,Fort Ann,NY
12828,43.25534,-73.56841,Fort Edward,NY
12831,43.19533,-73.68791,Gansevoort,NY
12832,43.36813,-73.31716,Granville,NY
12833,43.13866,-73.84355,Greenfield Center,NY
12834,43.09706,-73.50423,Greenwich,NY
12835,43.32496,-74.00589,Hadley,NY
12836,43.74994,-73.56816,Hague,NY
12837,43.50842,-73.26651,Hampton,NY
12838,43.34354,-73.40756,Hartford,NY
12839,43.34496,-73.55058,Hudson Falls,NY
12841,43.59919,-73.5165,Huletts Landing,NY
12842,43.75058,-74.2746,Indian Lake,NY
12843,43.5849,-73.97771,Johnsburg,NY
12844,43.49423,-73.64081,Kattskill Bay,NY
12845,43.42757,-73.70703,Lake George,NY
12846,43.34022,-73.80592,Lake Luzerne,NY
12847,43.98698,-74.59024,Long Lake,NY
12849,43.44812,-73.2985,Middle Granville,NY
12850,43.09886,-73.97941,Middle Grove,NY
12851,43.85171,-74.06211,Minerva,NY
12852,43.99293,-74.13598,Newcomb,NY
12853,43.68816,-73.99804,North Creek,NY
12854,43.45019,-73.32767,North Granville,NY
12855,44.00121,-73.79762,North Hudson,NY
12856,43.65531,-74.14625,North River,NY
12857,43.84033,-73.93354,Olmstedville,NY
12858,43.88899,-73.6703,Paradox,NY
12859,43.16587,-73.90569,Porter Corners,NY
12860,43.72843,-73.80942,Pottersville,NY
12861,43.74982,-73.41502,Putnam Station,NY
12862,43.67419,-73.91878,Riparius,NY
12863,43.06031,-73.93162,Rock City Falls,NY
12864,43.72733,-74.3054,Sabael,NY
12865,43.21225,-73.34191,Salem,NY
12866,43.07537,-73.7401,Saratoga Springs,NY
12870,43.83931,-73.7625,Schroon Lake,NY
12871,43.09249,-73.61196,Schuylerville,NY
12872,43.8839,-73.72309,Severance,NY
12873,43.1185,-73.30682,Shushan,NY
12874,43.69035,-73.54836,Silver Bay,NY
12878,43.44217,-74.0479,Stony Creek,NY
12883,43.85291,-73.50786,Ticonderoga,NY
12884,43.08855,-73.5921,Victory Mills,NY
12885,43.52929,-73.83161,Warrensburg,NY
12886,43.63689,-73.92654,Wevertown,NY
12887,43.54504,-73.37471,Whitehall,NY
12901,44.70842,-73.47465,Plattsburgh,NY
12903,44.65698,-73.46306,Plattsburgh,NY
12910,44.8546,-73.64593,Altona,NY
12911,44.53464,-73.46687,Keeseville,NY
12912,44.46233,-73.74201,Au Sable Forks,NY
12913,44.42627,-74.01562,Bloomingdale,NY
12914,44.93289,-74.6018,Bombay,NY
12915,44.8535,-74.035,Brainardsville,NY
12916,44.83572,-74.5145,Brushton,NY
12917,44.92468,-74.17387,Burke,NY
12918,44.68975,-73.67863,Cadyville,NY
12919,44.96793,-73.45072,Champlain,NY
12920,44.89332,-74.06016,Chateaugay,NY
12921,44.89188,-73.43574,Chazy,NY
12922,44.33381,-74.7827,Childwold,NY
12923,44.94546,-73.95802,Churubusco,NY
12924,44.47589,-73.58751,Keeseville,NY
12926,44.95223,-74.32214,Constable,NY
12927,44.2005,-74.81818,Cranberry Lake,NY
12928,43.9539,-73.52898,Crown Point,NY
12929,44.71971,-73.71909,Dannemora,NY
12930,44.72349,-74.5437,Dickinson Center,NY
12932,44.21222,-73.6082,Elizabethtown,NY
12933,44.89118,-73.84512,Ellenburg,NY
12934,44.84603,-73.87659,Ellenburg Center,NY
12935,44.85709,-73.79461,Ellenburg Depot,NY
12936,44.26869,-73.4029,Essex,NY
12937,44.96176,-74.47807,Fort Covington,NY
12939,44.43859,-74.16541,Gabriels,NY
12941,44.35147,-73.7126,Jay,NY
12942,44.26023,-73.79523,Keene,NY
12943,44.13934,-73.82075,Keene Valley,NY
12944,44.44585,-73.51193,Keeseville,NY
12945,44.33451,-74.23829,Lake Clear,NY
12946,44.23162,-73.98903,Lake Placid,NY
12950,44.32685,-73.57675,Lewis,NY
12952,44.71181,-73.91362,Lyon Mountain,NY
12953,44.74198,-74.26347,Malone,NY
12955,44.78934,-73.95855,Lyon Mountain,NY
12956,44.09301,-73.49628,Mineville,NY
12957,44.85353,-74.57706,Moira,NY
12958,44.95661,-73.57419,Mooers,NY
12959,44.96073,-73.7014,Mooers Forks,NY
12960,44.02226,-73.54123,Moriah,NY
12961,44.06103,-73.57972,Moriah Center,NY
12962,44.70642,-73.60141,Morrisonville,NY
12964,44.13224,-73.63625,New Russia,NY
12965,44.70587,-74.684,Nicholville,NY
12966,44.79226,-74.41915,North Bangor,NY
12967,44.76864,-74.65897,North Lawrence,NY
12969,44.71102,-74.0812,Owls Head,NY
12970,44.44949,-74.33222,Paul Smiths,NY
12972,44.559,-73.56516,Peru,NY
12973,44.30279,-74.59187,Piercefield,NY
12974,44.05582,-73.46931,Port Henry,NY
12975,44.52977,-73.431,Port Kent,NY
12976,44.50469,-74.20498,Rainbow Lake,NY
12977,44.29484,-74.09673,Ray Brook,NY
12978,44.6181,-73.79589,Redford,NY
12979,44.98926,-73.37213,Rouses Point,NY
12980,44.57254,-74.50875,Saint Regis Falls,NY
12981,44.62235,-73.84035,Saranac,NY
12983,44.34627,-74.14243,Saranac Lake,NY
12985,44.56413,-73.73395,Schuyler Falls,NY
12986,44.22279,-74.44056,Tupper Lake,NY
12987,44.33948,-73.76386,Upper Jay,NY
12989,44.53935,-74.06439,Vermontville,NY
12992,44.81822,-73.51582,West Chazy,NY
12993,44.19711,-73.48097,Westport,NY
12996,44.36129,-73.42129,Willsboro,NY
12997,44.3755,-73.84314,Wilmington,NY
12998,44.0879,-73.57584,Witherbee,NY
13020,42.81646,-76.07458,Apulia Station,NY
13021,42.91713,-76.5542,Auburn,NY
13024,42.93453,-76.57424,Auburn,NY
13026,42.75044,-76.65968,Aurora,NY
13027,43.16741,-76.36258,Baldwinsville,NY
13028,43.29226,-75.93107,Bernhards Bay,NY
13029,43.2236,-76.14993,Brewerton,NY
13030,43.15962,-75.96052,Bridgeport,NY
13031,43.0448,-76.30775,Camillus,NY
13032,43.07793,-75.76275,Canastota,NY
13033,43.1852,-76.57044,Cato,NY
13034,42.91366,-76.69502,Cayuga,NY
13035,42.93828,-75.82551,Cazenovia,NY
13036,43.32268,-76.17402,Central Square,NY
13037,43.06046,-75.86521,Chittenango,NY
13039,43.16678,-76.0654,Cicero,NY
13040,42.56033,-75.93029,Cincinnatus,NY
13041,43.19079,-76.19711,Clay,NY
13042,43.26565,-75.85154,Cleveland,NY
13044,43.2977,-75.99595,Constantia,NY
13045,42.58692,-76.19029,Cortland,NY
13051,42.88339,-75.91021,Delphi Falls,NY
13052,42.72838,-75.86957,De Ruyter,NY
13053,42.47513,-76.26471,Dryden,NY
13054,43.16947,-75.66923,Durhamville,NY
13057,43.09543,-76.04014,East Syracuse,NY
13060,43.02381,-76.41926,Elbridge,NY
13061,42.86493,-75.75173,Erieville,NY
13062,42.48121,-76.38694,Etna,NY
13063,42.84429,-75.98023,Fabius,NY
13065,42.81884,-76.81577,Fayette,NY
13066,43.03297,-76.00259,Fayetteville,NY
13068,42.49905,-76.35555,Freeville,NY
13069,43.33081,-76.37867,Fulton,NY
13071,42.67584,-76.54252,Genoa,NY
13072,42.76243,-75.76296,Georgetown,NY
13073,42.58514,-76.39832,Groton,NY
13074,43.31035,-76.54786,Hannibal,NY
13076,43.35364,-76.15182,Hastings,NY
13077,42.71557,-76.20089,Homer,NY
13078,42.96206,-76.06171,Jamesville,NY
13080,43.08338,-76.47776,Jordan,NY
13081,42.67364,-76.62527,King Ferry,NY
13082,43.10148,-75.95253,Kirkville,NY
13083,43.64853,-75.98091,Lacona,NY
13084,42.88938,-76.11314,La Fayette,NY
13087,42.69634,-76.16493,Little York,NY
13088,43.10787,-76.19096,Liverpool,NY
13090,43.15162,-76.21344,Liverpool,NY
13092,42.65145,-76.42502,Locke,NY
13101,42.60211,-76.06665,McGraw,NY
13102,42.55276,-76.29253,McLean,NY
13103,43.32652,-76.10507,Mallory,NY
13104,42.96378,-75.95523,Manlius,NY
13108,42.97349,-76.33069,Marcellus,NY
13110,42.89019,-76.28507,Marietta,NY
13111,43.25988,-76.61858,Martville,NY
13112,43.10306,-76.41926,Memphis,NY
13113,43.16425,-76.53488,Meridian,NY
13114,43.46386,-76.24328,Mexico,NY
13115,43.3937,-76.47462,Minetto,NY
13116,43.07449,-76.00796,Minoa,NY
13117,43.01007,-76.70838,Montezuma,NY
13118,42.75226,-76.39522,Moravia,NY
13119,42.97655,-76.44488,Mottville,NY
13120,42.94233,-76.1695,Nedrow,NY
13121,43.48491,-76.30966,New Haven,NY
13122,42.83857,-75.85919,New Woodstock,NY
13123,43.22796,-75.75325,North Bay,NY
13124,42.64578,-75.81718,North Pitcher,NY
13126,43.43469,-76.46331,Oswego,NY
13131,43.41964,-76.09539,Parish,NY
13132,43.26547,-76.24446,Pennellville,NY
13134,42.96731,-75.68476,Peterboro,NY
13135,43.25801,-76.31676,Phoenix,NY
13136,42.60368,-75.84582,Pitcher,NY
13138,42.89915,-76.01461,Pompey,NY
13140,43.05891,-76.65841,Port Byron,NY
13141,42.76684,-76.18616,Preble,NY
13142,43.55189,-76.12959,Pulaski,NY
13143,43.23325,-76.71545,Red Creek,NY
13144,43.57034,-75.97464,Richland,NY
13145,43.65188,-76.1232,Sandy Creek,NY
13146,43.09711,-76.76031,Savannah,NY
13147,42.77336,-76.56603,Scipio Center,NY
13148,42.9208,-76.78106,Seneca Falls,NY
13152,42.89323,-76.38518,Skaneateles,NY
13153,42.9945,-76.45476,Skaneateles Falls,NY
13154,43.13378,-76.76192,South Butler,NY
13155,42.65945,-75.77136,South Otselic,NY
13156,43.33355,-76.66249,Sterling,NY
13157,43.20288,-75.7254,Sylvan Beach,NY
13158,42.71603,-75.97626,Truxton,NY
13159,42.80321,-76.11545,Tully,NY
13160,42.82613,-76.65157,Union Springs,NY
13162,43.18833,-75.71823,Verona Beach,NY
13163,43.08194,-75.70841,Wampsville,NY
13164,43.09377,-76.31626,Warners,NY
13165,42.91185,-76.87601,Waterloo,NY
13166,43.07219,-76.5568,Weedsport,NY
13167,43.3171,-76.0571,West Monroe,NY
13202,43.04356,-76.15065,Syracuse,NY
13203,43.061,-76.13486,Syracuse,NY
13204,43.05204,-76.17666,Syracuse,NY
13205,43.00474,-76.14163,Syracuse,NY
13206,43.07354,-76.10584,Syracuse,NY
13207,43.01221,-76.16354,Syracuse,NY
13208,43.07878,-76.14521,Syracuse,NY
13209,43.08581,-76.24355,Syracuse,NY
13210,43.03186,-76.12653,Syracuse,NY
13211,43.10333,-76.11954,Syracuse,NY
13212,43.12839,-76.12889,Syracuse,NY
13214,43.03865,-76.0741,Syracuse,NY
13215,42.97852,-76.22979,Syracuse,NY
13219,43.03969,-76.22277,Syracuse,NY
13224,43.03892,-76.10264,Syracuse,NY
13244,43.02318,-76.12329,Syracuse,NY
13290,43.07132,-76.17368,Syracuse,NY
13301,43.42225,-75.21546,Alder Creek,NY
13302,43.50261,-75.95044,Altmar,NY
13303,43.36992,-75.46636,Ava,NY
13304,43.23954,-75.1589,Barneveld,NY
13305,43.89329,-75.43144,Beaver Falls,NY
13308,43.24865,-75.66686,Blossvale,NY
13309,43.47398,-75.34103,Boonville,NY
13310,42.89055,-75.57065,Bouckville,NY
13312,43.70247,-75.20758,Brantingham,NY
13313,42.88715,-75.26228,Bridgewater,NY
13314,42.82476,-75.31568,Brookfield,NY
13315,42.7438,-75.1385,Burlington Flats,NY
13316,43.41492,-75.73963,Camden,NY
13317,42.85638,-74.58844,Canajoharie,NY
13318,42.92366,-75.25958,Cassville,NY
13319,43.02705,-75.26593,Chadwicks,NY
13320,42.77353,-74.74325,Cherry Valley,NY
13321,43.08901,-75.37259,Clark Mills,NY
13322,42.96661,-75.20445,Clayville,NY
13323,43.04198,-75.38144,Clinton,NY
13324,43.3165,-74.93325,Cold Brook,NY
13325,43.58398,-75.54091,Constableville,NY
13326,42.71865,-74.90374,Cooperstown,NY
13327,43.96047,-75.28474,Croghan,NY
13328,42.98247,-75.42836,Deansboro,NY
13329,43.11094,-74.70017,Dolgeville,NY
13331,43.81706,-74.97284,Eagle Bay,NY
13332,42.75831,-75.57452,Earlville,NY
13333,42.83091,-74.82207,East Springfield,NY
13334,42.83445,-75.65986,Eaton,NY
13335,42.70193,-75.24847,Edmeston,NY
13337,42.75114,-74.9816,Fly Creek,NY
13338,43.49706,-74.97833,Forestport,NY
13339,42.93995,-74.66631,Fort Plain,NY
13340,43.04814,-75.11502,Frankfort,NY
13342,42.64766,-75.18918,Garrattsville,NY
13343,43.75271,-75.31062,Glenfield,NY
13345,43.6889,-75.33153,Greig,NY
13346,42.82093,-75.54453,Hamilton,NY
13348,42.70202,-75.06398,Hartwick,NY
13350,43.06352,-74.98817,Herkimer,NY
13352,43.31122,-75.12058,Hinckley,NY
13353,43.47123,-74.72732,Hoffmeister,NY
13354,43.26612,-75.27199,Holland Patent,NY
13355,42.80971,-75.42401,Hubbardsville,NY
13357,42.96952,-75.08037,Ilion,NY
13360,43.72457,-74.73577,Inlet,NY
13361,42.89807,-74.86256,Jordanville,NY
13363,43.33127,-75.50984,Lee Center,NY
13364,42.80501,-75.26105,Leonardsville,NY
13365,43.09804,-74.84937,Little Falls,NY
13367,43.85563,-75.31772,Lowville,NY
13368,43.6446,-75.33209,Lyons Falls,NY
13402,42.90209,-75.50728,Madison,NY
13403,43.17041,-75.27188,Marcy,NY
13404,43.73842,-75.48089,Martinsburg,NY
13406,43.14326,-74.92257,Middleville,NY
13407,42.9677,-74.94087,Mohawk,NY
13408,42.92205,-75.66722,Morrisville,NY
13409,42.97602,-75.59131,Munnsville,NY
13410,42.92908,-74.60922,Nelliston,NY
13411,42.63723,-75.30981,New Berlin,NY
13413,43.0576,-75.27495,New Hartford,NY
13415,42.59714,-75.19729,New Lisbon,NY
13416,43.18768,-74.9571,Newport,NY
13417,43.10002,-75.29399,New York Mills,NY
13418,42.84519,-75.38213,North Brookfield,NY
13420,43.65069,-74.9619,Old Forge,NY
13421,43.06293,-75.64654,Oneida,NY
13424,43.15228,-75.36291,Oriskany,NY
13425,42.9635,-75.48675,Oriskany Falls,NY
13428,42.92096,-74.53311,Palatine Bridge,NY
13431,43.20691,-75.07608,Poland,NY
13433,43.59914,-75.24765,Port Leyden,NY
13435,43.30255,-75.15134,Prospect,NY
13436,43.80501,-74.67034,Raquette Lake,NY
13437,43.59677,-75.80383,Redfield,NY
13438,43.35171,-75.15527,Remsen,NY
13439,42.85491,-74.99724,Richfield Springs,NY
13440,43.21807,-75.45941,Rome,NY
13441,43.22711,-75.40758,Rome,NY
13450,42.7026,-74.81263,Roseboom,NY
13452,43.03718,-74.63001,Saint Johnsville,NY
13454,43.16885,-74.75719,Salisbury Center,NY
13455,42.91791,-75.37655,Sangerfield,NY
13456,43.00145,-75.25855,Sauquoit,NY
13457,42.77527,-75.03691,Schuyler Lake,NY
13459,42.77721,-74.59315,Sharon Springs,NY
13460,42.68492,-75.45572,Sherburne,NY
13461,43.07115,-75.59866,Sherrill,NY
13464,42.68632,-75.61998,Smyrna,NY
13468,42.84696,-74.86448,Springfield Center,NY
13469,43.22028,-75.29853,Stittville,NY
13470,43.21075,-74.66825,Stratford,NY
13471,43.37606,-75.6122,Taberg,NY
13472,43.69491,-75.06072,Thendara,NY
13473,43.64414,-75.44517,Turin,NY
13475,42.88789,-74.81196,Van Hornesville,NY
13476,43.08728,-75.51219,Vernon,NY
13477,43.03633,-75.51441,Vernon Center,NY
13478,43.14916,-75.58009,Verona,NY
13480,42.91424,-75.36699,Waterville,NY
13482,42.69661,-75.17695,West Burlington,NY
13483,43.40075,-75.81995,Westdale,NY
13484,42.85426,-75.65549,West Eaton,NY
13485,42.7865,-75.3165,West Edmeston,NY
13486,43.35707,-75.34088,Westernville,NY
13488,42.67447,-74.76796,Westford,NY
13489,43.46698,-75.52928,West Leyden,NY
13490,43.10612,-75.42991,Westmoreland,NY
13491,42.85957,-75.17698,West Winfield,NY
13492,43.1172,-75.33023,Whitesboro,NY
13493,43.43162,-75.90102,Williamstown,NY
13494,43.53136,-75.14198,Woodgate,NY
13495,43.11087,-75.27744,Yorkville,NY
13501,43.08138,-75.22611,Utica,NY
13502,43.14121,-75.16584,Utica,NY
13601,43.96949,-75.90965,Watertown,NY
13602,44.04877,-75.75747,Fort Drum,NY
13603,44.03826,-75.79765,Watertown,NY
13605,43.80641,-76.05195,Adams,NY
13606,43.87007,-76.01601,Adams Center,NY
13607,44.33233,-75.91187,Alexandria Bay,NY
13608,44.23879,-75.62508,Antwerp,NY
13611,43.77726,-76.12374,Belleville,NY
13612,43.98571,-75.76911,Black River,NY
13613,44.85884,-74.73879,Brasher Falls,NY
13614,44.53081,-75.69194,Brier Hill,NY
13615,44.00569,-75.98328,Brownville,NY
13616,44.02538,-75.85896,Calcium,NY
13617,44.5789,-75.14668,Canton,NY
13618,44.11641,-76.27851,Cape Vincent,NY
13619,43.97705,-75.59432,Carthage,NY
13620,43.89989,-75.45265,Castorland,NY
13621,44.8452,-75.06596,Chase Mills,NY
13622,44.09654,-76.115,Chaumont,NY
13623,44.44877,-75.75299,Chippewa Bay,NY
13624,44.22284,-76.09736,Clayton,NY
13625,44.5384,-74.92135,Colton,NY
13626,43.85143,-75.7202,Copenhagen,NY
13628,44.03764,-75.68307,Deferiet,NY
13630,44.49742,-75.31756,De Kalb Junction,NY
13632,44.12698,-76.06826,Depauville,NY
13633,44.48259,-75.48825,De Peyster,NY
13634,44.01197,-76.07034,Dexter,NY
13635,44.29915,-75.26188,Edwards,NY
13636,43.74107,-76.12762,Ellisburg,NY
13637,44.09751,-75.83346,Evans Mills,NY
13638,44.02077,-75.75443,Felts Mills,NY
13639,44.2594,-75.14324,Fine,NY
13640,44.3198,-75.99937,Wellesley Island,NY
13641,44.27341,-76.00573,Fishers Landing,NY
13642,44.3263,-75.46742,Gouverneur,NY
13643,44.03207,-75.71738,Great Bend,NY
13645,44.30878,-75.44655,Hailesboro,NY
13646,44.44144,-75.69379,Hammond,NY
13647,44.6017,-74.99264,Hannawa Falls,NY
13648,44.14977,-75.29908,Harrisville,NY
13649,44.91246,-74.69983,Helena,NY
13650,43.80742,-76.20629,Henderson,NY
13651,43.86513,-76.18125,Henderson Harbor,NY
13652,44.43579,-75.21338,Hermon,NY
13654,44.56654,-75.46067,Heuvelton,NY
13655,44.97865,-74.64781,Hogansburg,NY
13656,44.19141,-75.95058,La Fargeville,NY
13658,44.73979,-75.27756,Lisbon,NY
13659,43.73783,-75.8707,Lorraine,NY
13660,44.77727,-75.15764,Madrid,NY
13661,43.70924,-76.1054,Mannsville,NY
13662,44.9378,-74.89383,Massena,NY
13664,44.58423,-75.64537,Morristown,NY
13665,44.05227,-75.44933,Natural Bridge,NY
13666,44.21404,-74.95557,Newton Falls,NY
13667,44.83768,-74.96149,Norfolk,NY
13668,44.75432,-74.98764,Norwood,NY
13669,44.65004,-75.49861,Ogdensburg,NY
13670,44.18264,-75.11635,Oswegatchie,NY
13672,44.48166,-74.67987,Parishville,NY
13673,44.17105,-75.72133,Philadelphia,NY
13674,43.73763,-76.05192,Pierrepont Manor,NY
13675,44.28227,-75.83872,Plessis,NY
13676,44.65178,-74.91377,Potsdam,NY
13678,44.83165,-74.96775,Raymondville,NY
13679,44.32664,-75.76554,Redwood,NY
13680,44.59416,-75.32814,Rensselaer Falls,NY
13681,44.42933,-75.37142,Richville,NY
13682,43.84024,-75.88924,Rodman,NY
13683,44.97395,-74.73543,Rooseveltown,NY
13684,44.36577,-75.0464,Russell,NY
13685,43.93343,-76.09399,Sackets Harbor,NY
13687,44.44744,-74.82516,South Colton,NY
13690,44.12612,-75.02319,Star Lake,NY
13691,44.22747,-75.78208,Theresa,NY
13692,44.28861,-76.0258,Thousand Island Park,NY
13693,44.03237,-76.24824,Three Mile Bay,NY
13694,44.8575,-75.1645,Waddington,NY
13695,44.10505,-74.92872,Wanakena,NY
13696,44.70425,-74.88971,West Stockholm,NY
13697,44.74841,-74.80656,Winthrop,NY
13699,44.66372,-74.99851,Potsdam,NY
13730,42.23201,-75.53127,Afton,NY
13731,42.13059,-74.7882,Andes,NY
13732,42.04396,-76.16772,Apalachin,NY
13733,42.30459,-75.4793,Bainbridge,NY
13734,42.07752,-76.40864,Barton,NY
13736,42.31722,-76.19389,Berkshire,NY
13738,42.56236,-76.11986,Blodgett Mills,NY
13739,42.36614,-74.78982,Bloomville,NY
13740,42.27535,-74.74498,Bovina Center,NY
13743,42.21706,-76.33898,Candor,NY
13744,42.24078,-75.90629,Castle Creek,NY
13746,42.26868,-75.82085,Chenango Forks,NY
13747,42.49003,-74.98209,Colliersville,NY
13748,42.03428,-75.81727,Conklin,NY
13750,42.47739,-74.83904,Davenport,NY
13751,42.45745,-74.88363,Davenport Center,NY
13752,42.17257,-74.90379,Delancey,NY
13753,42.30873,-74.92538,Delhi,NY
13754,42.09387,-75.43625,Deposit,NY
13755,42.05976,-75.01524,Downsville,NY
13756,42.01025,-75.10394,East Branch,NY
13757,42.40915,-74.89321,East Meredith,NY
13760,42.13425,-76.08354,Endicott,NY
13774,41.96192,-75.17283,Fishs Eddy,NY
13775,42.33706,-75.14728,Franklin,NY
13776,42.47023,-75.33458,Gilbertsville,NY
13777,42.25894,-75.9866,Glen Aubrey,NY
13778,42.34795,-75.75977,Greene,NY
13780,42.42496,-75.48128,Guilford,NY
13782,42.17304,-74.9836,Hamden,NY
13783,41.99037,-75.26764,Hancock,NY
13784,42.43542,-76.2177,Harford,NY
13786,42.4485,-74.69563,Harpersfield,NY
13787,42.20606,-75.66334,Harpursville,NY
13788,42.34914,-74.65658,Hobart,NY
13790,42.16937,-75.99796,Johnson City,NY
13795,42.05844,-75.77419,Kirkwood,NY
13796,42.5513,-75.13644,Laurens,NY
13797,42.32765,-76.04389,Lisle,NY
13801,42.50327,-75.78028,McDonough,NY
13802,42.25164,-76.04207,Maine,NY
13803,42.45787,-76.06028,Marathon,NY
13804,42.20708,-75.37562,Masonville,NY
13806,42.37894,-74.97315,Meridale,NY
13807,42.61718,-74.98612,Milford,NY
13808,42.52797,-75.25657,Morris,NY
13809,42.40849,-75.3914,Mount Upton,NY
13810,42.61188,-75.11157,Mount Vision,NY
13811,42.23099,-76.17481,Newark Valley,NY
13812,42.02993,-76.35461,Nichols,NY
13813,42.16808,-75.54266,Nineveh,NY
13814,42.61655,-75.52584,North Norwich,NY
13815,42.54712,-75.53413,Norwich,NY
13820,42.47204,-75.03893,Oneonta,NY
13825,42.44329,-75.20154,Otego,NY
13826,42.10517,-75.63701,Ouaquaga,NY
13827,42.11178,-76.25216,Owego,NY
13830,42.43868,-75.6295,Oxford,NY
13832,42.6531,-75.66286,Plymouth,NY
13833,42.19829,-75.76432,Port Crane,NY
13834,42.54903,-74.96727,Portlandville,NY
13835,42.38906,-76.16939,Richford,NY
13838,42.28423,-75.39595,Sidney,NY
13839,42.24824,-75.26007,Sidney Center,NY
13841,42.41408,-75.84171,Smithville Flats,NY
13842,42.37922,-74.72302,South Kortright,NY
13843,42.53468,-75.37584,South New Berlin,NY
13844,42.60927,-75.68083,South Plymouth,NY
13846,42.36037,-75.05465,Treadwell,NY
13847,42.20443,-75.27777,Trout Creek,NY
13849,42.33785,-75.31392,Unadilla,NY
13850,42.04873,-76.02663,Vestal,NY
13856,42.16666,-75.16633,Walton,NY
13859,42.37123,-75.24916,Wells Bridge,NY
13860,42.45573,-74.94989,West Davenport,NY
13861,42.5048,-75.14156,West Oneonta,NY
13862,42.3369,-75.9372,Whitney Point,NY
13863,42.44164,-75.904,Willet,NY
13864,42.29095,-76.39225,Willseyville,NY
13865,42.06282,-75.62879,Windsor,NY
13901,42.18253,-75.88048,Binghamton,NY
13902,42.08895,-75.96891,Binghamton,NY
13903,42.04749,-75.89573,Binghamton,NY
13904,42.13072,-75.81587,Binghamton,NY
13905,42.18086,-75.94476,Binghamton,NY
14001,43.03149,-78.51154,Akron,NY
14004,42.89487,-78.51008,Alden,NY
14005,42.91788,-78.24703,Alexander,NY
14006,42.63366,-79.02056,Angola,NY
14008,43.30792,-78.62728,Appleton,NY
14009,42.57542,-78.39241,Arcade,NY
14011,42.83158,-78.29784,Attica,NY
14012,43.33431,-78.52572,Barker,NY
14013,43.07639,-78.39704,Basom,NY
14020,42.99513,-78.21508,Batavia,NY
14024,42.58111,-78.24431,Bliss,NY
14025,42.6232,-78.72609,Boston,NY
14026,42.94212,-78.68794,Bowmansville,NY
14027,42.59408,-79.02067,Brant,NY
14028,43.31498,-78.71664,Burt,NY
14029,42.47293,-78.26346,Centerville,NY
14030,42.56518,-78.50052,Chaffee,NY
14031,42.98661,-78.60908,Clarence,NY
14032,43.04587,-78.63189,Clarence Center,NY
14033,42.65865,-78.68436,Colden,NY
14034,42.4985,-78.86238,Collins,NY
14035,42.49099,-78.85936,Collins Center,NY
14036,42.97447,-78.38712,Corfu,NY
14037,42.80637,-78.45448,Cowlesville,NY
14039,42.83593,-78.17101,Dale,NY
14040,42.88809,-78.37847,Darien Center,NY
14041,42.4059,-78.97699,Dayton,NY
14042,42.46882,-78.48377,Delevan,NY
14043,42.90142,-78.70431,Depew,NY
14047,42.68579,-78.99328,Derby,NY
14048,42.48087,-79.31128,Dunkirk,NY
14051,43.04168,-78.69927,East Amherst,NY
14052,42.77054,-78.58084,East Aurora,NY
14054,42.90606,-78.1312,East Bethany,NY
14055,42.5536,-78.60121,East Concord,NY
14056,42.99183,-78.30663,East Pembroke,NY
14057,42.64587,-78.87542,Eden,NY
14058,43.10167,-78.16211,Elba,NY
14059,42.83241,-78.63678,Elma,NY
14060,42.43986,-78.30884,Farmersville Station,NY
14061,42.59111,-79.08949,Farnham,NY
14062,42.44364,-79.14897,Forestville,NY
14063,42.41451,-79.32518,Fredonia,NY
14065,42.48741,-78.31158,Freedom,NY
14066,42.62381,-78.18051,Gainesville,NY
14067,43.21565,-78.56644,Gasport,NY
14068,43.02696,-78.75808,Getzville,NY
14069,42.59984,-78.62984,Glenwood,NY
14070,42.43673,-78.92798,Gowanda,NY
14072,43.01673,-78.96308,Grand Island,NY
14075,42.71297,-78.82985,Hamburg,NY
14080,42.64289,-78.54886,Holland,NY
14081,42.56332,-79.06528,Irving,NY
14082,42.65689,-78.38435,Java Center,NY
14083,42.67921,-78.43446,Java Village,NY
14085,42.71494,-78.92691,Lake View,NY
14086,42.90661,-78.6291,Lancaster,NY
14091,42.54224,-78.88868,Lawtons,NY
14092,43.17314,-78.99521,Lewiston,NY
14094,43.15989,-78.70032,Lockport,NY
14098,43.33464,-78.37827,Lyndonville,NY
14101,42.3863,-78.54292,Machias,NY
14102,42.84272,-78.55481,Marilla,NY
14103,43.2125,-78.37696,Medina,NY
14105,43.19043,-78.4813,Middleport,NY
14108,43.26365,-78.7274,Newfane,NY
14109,43.13718,-79.03516,Niagara University,NY
14111,42.58206,-78.89803,North Collins,NY
14112,42.6981,-78.9395,North Evans,NY
14113,42.66813,-78.33624,North Java,NY
14120,43.07337,-78.83585,North Tonawanda,NY
14125,43.08773,-78.28207,Oakfield,NY
14126,43.33529,-78.72335,Olcott,NY
14127,42.75204,-78.74402,Orchard Park,NY
14129,42.4805,-79.0092,Perrysburg,NY
14130,42.55318,-78.14959,Pike,NY
14131,43.23556,-78.89935,Ransomville,NY
14132,43.14787,-78.87856,Sanborn,NY
14134,42.53057,-78.51738,Sardinia,NY
14135,42.48489,-79.2437,Sheridan,NY
14136,42.52387,-79.16935,Silver Creek,NY
14138,42.37497,-79.05376,South Dayton,NY
14139,42.71723,-78.53606,South Wales,NY
14141,42.52366,-78.7109,Springville,NY
14143,42.97547,-78.0759,Stafford,NY
14145,42.73154,-78.43205,Strykersville,NY
14150,42.99794,-78.87815,Tonawanda,NY
14166,42.45088,-79.41592,Van Buren Point,NY
14167,42.74327,-78.32629,Varysburg,NY
14168,42.51187,-78.98745,Versailles,NY
14169,42.76446,-78.52938,Wales Center,NY
14170,42.70115,-78.67294,West Falls,NY
14171,42.42491,-78.64286,West Valley,NY
14172,43.28201,-78.81757,Wilson,NY
14173,42.52594,-78.47306,Yorkshire,NY
14174,43.24178,-79.00548,Youngstown,NY
14201,42.89706,-78.88752,Buffalo,NY
14202,42.88798,-78.88358,Buffalo,NY
14203,42.86244,-78.86507,Buffalo,NY
14204,42.882,-78.8614,Buffalo,NY
14206,42.88078,-78.81018,Buffalo,NY
14207,42.95201,-78.89824,Buffalo,NY
14208,42.9146,-78.85146,Buffalo,NY
14209,42.91365,-78.86622,Buffalo,NY
14210,42.86407,-78.82811,Buffalo,NY
14211,42.90813,-78.81883,Buffalo,NY
14212,42.89438,-78.81957,Buffalo,NY
14213,42.91762,-78.89099,Buffalo,NY
14214,42.93936,-78.84101,Buffalo,NY
14215,42.93451,-78.81023,Buffalo,NY
14216,42.94855,-78.862,Buffalo,NY
14217,42.97189,-78.87674,Buffalo,NY
14218,42.81921,-78.82772,Buffalo,NY
14219,42.78903,-78.82694,Buffalo,NY
14220,42.84571,-78.82264,Buffalo,NY
14221,42.97918,-78.72158,Buffalo,NY
14222,42.92002,-78.8771,Buffalo,NY
14223,42.97348,-78.84612,Buffalo,NY
14224,42.83767,-78.74771,Buffalo,NY
14225,42.92879,-78.752,Buffalo,NY
14226,42.97078,-78.79844,Buffalo,NY
14227,42.88402,-78.74665,Buffalo,NY
14228,43.04214,-78.7798,Buffalo,NY
14260,43.00165,-78.79066,Buffalo,NY
14261,43.00188,-78.7848,Buffalo,NY
14301,43.09701,-79.03726,Niagara Falls,NY
14302,43.0939,-79.04919,Niagara Falls,NY
14303,43.08428,-79.03908,Niagara Falls,NY
14304,43.10197,-78.95282,Niagara Falls,NY
14305,43.1199,-79.02265,Niagara Falls,NY
14411,43.23456,-78.21349,Albion,NY
14413,43.2229,-76.97067,Alton,NY
14414,42.89358,-77.73501,Avon,NY
14415,42.7559,-77.01643,Bellona,NY
14416,43.08003,-77.97849,Bergen,NY
14418,42.60717,-77.21681,Branchport,NY
14420,43.21385,-77.93305,Brockport,NY
14422,43.08357,-78.06704,Byron,NY
14423,42.94382,-77.82788,Caledonia,NY
14424,42.84649,-77.3104,Canandaigua,NY
14425,42.98962,-77.33734,Farmington,NY
14427,42.61828,-78.05442,Castile,NY
14428,43.08029,-77.85963,Churchville,NY
14432,42.95696,-77.14333,Clifton Springs,NY
14433,43.07939,-76.87779,Clyde,NY
14435,42.71496,-77.66721,Conesus,NY
14437,42.57072,-77.73435,Dansville,NY
14441,42.68608,-76.95756,Dresden,NY
14445,43.11312,-77.48978,East Rochester,NY
14450,43.0921,-77.41623,Fairport,NY
14453,43.01602,-77.47338,Fishers,NY
14454,42.79731,-77.76879,Geneseo,NY
14456,42.84584,-77.00012,Geneva,NY
14462,42.68652,-77.75112,Groveland,NY
14463,42.79539,-77.0689,Hall,NY
14464,43.32659,-77.9374,Hamlin,NY
14466,42.77773,-77.5842,Hemlock,NY
14467,43.04119,-77.60996,Henrietta,NY
14468,43.29242,-77.80542,Hilton,NY
14469,42.87778,-77.46735,Bloomfield,NY
14470,43.21099,-78.05456,Holley,NY
14471,42.75308,-77.49425,Honeoye,NY
14472,42.96589,-77.58173,Honeoye Falls,NY
14475,42.93683,-77.49787,Ionia,NY
14476,43.32946,-78.04226,Kendall,NY
14477,43.33353,-78.13415,Kent,NY
14478,42.58011,-77.12791,Keuka Park,NY
14479,43.23768,-78.31008,Knowlesville,NY
14480,42.83809,-77.70736,Lakeville,NY
14481,42.77173,-77.91643,Leicester,NY
14482,42.97457,-77.97014,Le Roy,NY
14485,42.88016,-77.60131,Lima,NY
14486,42.89293,-77.92295,Linwood,NY
14487,42.81174,-77.63873,Livonia,NY
14489,43.09008,-76.99238,Lyons,NY
14502,43.09532,-77.33598,Macedon,NY
14504,42.96839,-77.2327,Manchester,NY
14505,43.15846,-77.17503,Marion,NY
14506,43.0012,-77.50508,Mendon,NY
14507,42.69635,-77.27373,Middlesex,NY
14510,42.69485,-77.87167,Mount Morris,NY
14511,42.99603,-77.87762,Mumford,NY
14512,42.64411,-77.39296,Naples,NY
14513,43.07204,-77.0961,Newark,NY
14514,43.08597,-77.80303,North Chili,NY
14515,43.25287,-77.73175,North Greece,NY
14516,43.19855,-76.91153,North Rose,NY
14517,42.59217,-77.8971,Nunda,NY
14519,43.23184,-77.31389,Ontario,NY
14521,42.67639,-76.80876,Ovid,NY
14522,43.05911,-77.22152,Palmyra,NY
14525,42.87242,-78.01471,Pavilion,NY
14526,43.15129,-77.44806,Penfield,NY
14527,42.66764,-77.06473,Penn Yan,NY
14529,42.53748,-77.64418,Perkinsville,NY
14530,42.73446,-78.00276,Perry,NY
14532,42.96462,-77.02601,Phelps,NY
14533,42.84632,-77.88468,Piffard,NY
14534,43.0564,-77.52083,Pittsford,NY
14536,42.53958,-78.08358,Portageville,NY
14537,43.03539,-77.15604,Port Gibson,NY
14539,42.83418,-77.87521,Retsof,NY
14541,42.75704,-76.84403,Romulus,NY
14542,43.15306,-76.87595,Rose,NY
14543,42.98777,-77.67747,Rush,NY
14544,42.75562,-77.23958,Rushville,NY
14545,42.66166,-77.71056,Scottsburg,NY
14546,43.0296,-77.77372,Scottsville,NY
14548,42.97538,-77.24341,Shortsville,NY
14549,42.69667,-78.02212,Silver Lake,NY
14550,42.67757,-78.09166,Silver Springs,NY
14551,43.21886,-77.04596,Sodus,NY
14555,43.25946,-76.98665,Sodus Point,NY
14556,42.67906,-77.83222,Sonyea,NY
14557,43.04807,-78.06126,South Byron,NY
14559,43.18823,-77.81778,Spencerport,NY
14560,42.68716,-77.57691,Springwater,NY
14561,42.82218,-77.13131,Stanley,NY
14564,42.98329,-77.42417,Victor,NY
14568,43.14657,-77.28365,Walworth,NY
14569,42.74012,-78.17269,Warsaw,NY
14571,43.34397,-78.24894,Waterport,NY
14572,42.5669,-77.57017,Wayland,NY
14580,43.21883,-77.44561,Webster,NY
14585,42.90587,-77.55301,West Bloomfield,NY
14586,43.04151,-77.68693,West Henrietta,NY
14588,42.67973,-76.87047,Willard,NY
14589,43.23997,-77.17224,Williamson,NY
14590,43.24533,-76.83099,Wolcott,NY
14591,42.82865,-78.09364,Wyoming,NY
14592,42.86875,-77.89066,York,NY
14604,43.1569,-77.60536,Rochester,NY
14605,43.16838,-77.60177,Rochester,NY
14606,43.17069,-77.69933,Rochester,NY
14607,43.15099,-77.58682,Rochester,NY
14608,43.15335,-77.62362,Rochester,NY
14609,43.17731,-77.55234,Rochester,NY
14610,43.14196,-77.5463,Rochester,NY
14611,43.14756,-77.64731,Rochester,NY
14612,43.26513,-77.67654,Rochester,NY
14613,43.1822,-77.64068,Rochester,NY
14614,43.1574,-77.61473,Rochester,NY
14615,43.20337,-77.65637,Rochester,NY
14616,43.23431,-77.65822,Rochester,NY
14617,43.22488,-77.59323,Rochester,NY
14618,43.11305,-77.55547,Rochester,NY
14619,43.1361,-77.649,Rochester,NY
14620,43.12878,-77.60463,Rochester,NY
14621,43.18911,-77.60408,Rochester,NY
14622,43.21389,-77.55359,Rochester,NY
14623,43.08798,-77.64314,Rochester,NY
14624,43.12765,-77.7317,Rochester,NY
14625,43.14891,-77.50551,Rochester,NY
14626,43.21348,-77.71272,Rochester,NY
14627,43.12931,-77.62912,Rochester,NY
14642,43.12281,-77.62508,Rochester,NY
14701,42.08091,-79.25502,Jamestown,NY
14706,42.10663,-78.52795,Allegany,NY
14707,42.08256,-78.06196,Allentown,NY
14708,42.01424,-78.06988,Alma,NY
14709,42.35279,-77.98267,Angelica,NY
14710,42.08957,-79.42306,Ashville,NY
14711,42.32088,-78.12625,Belfast,NY
14712,42.18163,-79.36812,Bemus Point,NY
14714,42.28368,-78.23493,Black Creek,NY
14715,42.07323,-78.14832,Bolivar,NY
14716,42.38056,-79.43406,Brocton,NY
14717,42.36258,-78.18235,Caneadea,NY
14718,42.34417,-79.28813,Cassadaga,NY
14719,42.34323,-78.87198,Cattaraugus,NY
14720,42.10857,-79.27997,Celoron,NY
14721,42.01645,-78.26801,Ceres,NY
14722,42.20961,-79.46882,Chautauqua,NY
14723,42.3101,-79.13489,Cherry Creek,NY
14724,42.05272,-79.67031,Clymer,NY
14726,42.25255,-79.02221,Conewango Valley,NY
14727,42.2129,-78.29358,Cuba,NY
14728,42.2648,-79.41689,Dewittville,NY
14729,42.40404,-78.73628,East Otto,NY
14731,42.30063,-78.65092,Ellicottville,NY
14732,42.2188,-79.10696,Ellington,NY
14733,42.14996,-79.17499,Falconer,NY
14735,42.45027,-78.09681,Fillmore,NY
14736,42.13715,-79.74644,Findley Lake,NY
14737,42.33524,-78.42926,Franklinville,NY
14738,42.04539,-79.05926,Frewsburg,NY
14739,42.1925,-78.14932,Friendship,NY
14740,42.21962,-79.18053,Gerry,NY
14741,42.21868,-78.5963,Great Valley,NY
14742,42.11934,-79.30878,Greenhurst,NY
14743,42.20532,-78.40631,Hinsdale,NY
14744,42.4219,-78.21516,Houghton,NY
14747,42.15346,-79.09061,Kennedy,NY
14748,42.1392,-78.63636,Kill Buck,NY
14750,42.07939,-79.32752,Lakewood,NY
14752,42.3517,-79.31965,Lily Dale,NY
14753,42.03899,-78.63516,Limestone,NY
14754,42.02385,-78.19799,Little Genesee,NY
14755,42.23477,-78.81398,Little Valley,NY
14756,42.19708,-79.42373,Maple Springs,NY
14757,42.23944,-79.50457,Mayville,NY
14760,42.07098,-78.41421,Olean,NY
14767,42.05344,-79.51583,Panama,NY
14769,42.36885,-79.47413,Portland,NY
14770,42.0468,-78.29963,Portville,NY
14772,42.15383,-78.95086,Randolph,NY
14774,42.08875,-78.14658,Richburg,NY
14775,42.23198,-79.69532,Ripley,NY
14777,42.38999,-78.26167,Rushford,NY
14778,42.07759,-78.4827,Saint Bonaventure,NY
14779,42.10703,-78.76977,Salamanca,NY
14781,42.16402,-79.604,Sherman,NY
14782,42.2665,-79.2559,Sinclairville,NY
14783,42.06014,-78.91816,Steamburg,NY
14784,42.31445,-79.38028,Stockton,NY
14785,42.15572,-79.40337,Stow,NY
14787,42.31342,-79.5675,Westfield,NY
14788,42.06012,-78.37661,Westons Mills,NY
14801,42.09718,-77.28461,Addison,NY
14802,42.2537,-77.78989,Alfred,NY
14803,42.25135,-77.78808,Alfred Station,NY
14804,42.31587,-77.8476,Almond,NY
14805,42.3563,-76.72618,Alpine,NY
14806,42.15543,-77.78662,Andover,NY
14807,42.41821,-77.71949,Arkport,NY
14808,42.55817,-77.46882,Atlanta,NY
14809,42.41961,-77.44355,Avoca,NY
14810,42.34678,-77.34599,Bath,NY
14812,42.29199,-76.99413,Beaver Dams,NY
14813,42.24638,-77.99209,Belmont,NY
14814,42.15525,-76.95148,Big Flats,NY
14815,42.37335,-77.09463,Bradford,NY
14816,42.19728,-76.73161,Breesport,NY
14817,42.36295,-76.34548,Brooktondale,NY
14818,42.44878,-76.81688,Burdett,NY
14819,42.21924,-77.43466,Cameron,NY
14820,42.18629,-77.36258,Cameron Mills,NY
14821,42.23541,-77.21623,Campbell,NY
14822,42.43522,-77.84702,Canaseraga,NY
14823,42.23984,-77.5722,Canisteo,NY
14824,42.26875,-76.70881,Cayuta,NY
14825,42.05564,-76.62116,Chemung,NY
14826,42.49354,-77.49335,Cohocton,NY
14827,42.18069,-77.14292,Coopers Plains,NY
14830,42.12927,-77.02783,Corning,NY
14836,42.51526,-77.91526,Dalton,NY
14837,42.49919,-77.01668,Dundee,NY
14838,42.18951,-76.66635,Erin,NY
14839,42.13961,-77.64331,Greenwood,NY
14840,42.44119,-77.18758,Hammondsport,NY
14841,42.52699,-76.84249,Hector,NY
14842,42.59666,-76.963,Himrod,NY
14843,42.32819,-77.64371,Hornell,NY
14845,42.20225,-76.8334,Horseheads,NY
14846,42.5301,-78.00319,Hunt,NY
14847,42.6031,-76.74047,Interlaken,NY
14850,42.43249,-76.49891,Ithaca,NY
14853,42.44727,-76.48149,Ithaca,NY
14854,42.51138,-76.60874,Jacksonville,NY
14855,42.13978,-77.50112,Jasper,NY
14856,42.37737,-77.36944,Kanona,NY
14858,42.02909,-77.13315,Lindley,NY
14859,42.12118,-76.53985,Lockwood,NY
14860,42.59099,-76.84201,Lodi,NY
14861,42.0914,-76.6888,Lowman,NY
14864,42.2804,-76.84205,Millport,NY
14865,42.35091,-76.83178,Montour Falls,NY
14867,42.34243,-76.61461,Newfield,NY
14869,42.36403,-76.77052,Odessa,NY
14870,42.16816,-77.13234,Painted Post,NY
14871,42.03838,-76.91093,Pine City,NY
14872,42.24141,-76.86473,Pine Valley,NY
14873,42.52181,-77.29814,Prattsburgh,NY
14874,42.53231,-77.17234,Pulteney,NY
14877,42.06181,-77.68384,Rexville,NY
14878,42.44946,-76.94401,Rock Stream,NY
14879,42.31521,-77.19323,Savona,NY
14880,42.17363,-77.97334,Scio,NY
14881,42.4017,-76.35795,Slaterville Springs,NY
14882,42.5801,-76.56576,Lansing,NY
14883,42.24056,-76.482,Spencer,NY
14884,42.47613,-77.88724,Swain,NY
14885,42.048,-77.57117,Troupsburg,NY
14886,42.50408,-76.68836,Trumansburg,NY
14889,42.21605,-76.58138,Van Etten,NY
14891,42.37823,-76.95035,Watkins Glen,NY
14892,42.0478,-76.52804,Waverly,NY
14893,42.46952,-77.11182,Wayne,NY
14894,42.02442,-76.77185,Wellsburg,NY
14895,42.07772,-77.93387,Wellsville,NY
14897,42.02949,-77.79076,Whitesville,NY
14898,42.05729,-77.43482,Woodhull,NY
14901,42.07363,-76.74137,Elmira,NY
14903,42.12372,-76.87771,Elmira,NY
14904,42.07007,-76.80798,Elmira,NY
14905,42.08692,-76.84284,Elmira,NY
